<?xml version="1.0" encoding="UTF-8"?>
<ndm xmlns:xsi="http://www.w3.org/2001/XMLSchema-instance" xsi:noNamespaceSchemaLocation="https://sanaregistry.org/r/ndmxml_unqualified/ndmxml-2.0.0-master-2.0.xsd">
<omm id="CCSDS_OMM_VERS" version="2.0">
<header><CREATION_DATE/><ORIGINATOR/></header><body><segment><metadata><OBJECT_NAME>IRIDIUM 144</OBJECT_NAME><OBJECT_ID>2018-030A</OBJECT_ID><CENTER_NAME>EARTH</CENTER_NAME><REF_FRAME>TEME</REF_FRAME><TIME_SYSTEM>UTC</TIME_SYSTEM><MEAN_ELEMENT_THEORY>SGP4</MEAN_ELEMENT_THEORY></metadata><data><meanElements><EPOCH>2024-04-28T15:17:31.352352</EPOCH><MEAN_MOTION>14.34216762</MEAN_MOTION><ECCENTRICITY>.0002022</ECCENTRICITY><INCLINATION>86.3951</INCLINATION><RA_OF_ASC_NODE>256.1635</RA_OF_ASC_NODE><ARG_OF_PERICENTER>92.5459</ARG_OF_PERICENTER><MEAN_ANOMALY>267.5968</MEAN_ANOMALY></meanElements><tleParameters><EPHEMERIS_TYPE>0</EPHEMERIS_TYPE><CLASSIFICATION_TYPE>U</CLASSIFICATION_TYPE><NORAD_CAT_ID>43249</NORAD_CAT_ID><ELEMENT_SET_NO>999</ELEMENT_SET_NO><REV_AT_EPOCH>31840</REV_AT_EPOCH><BSTAR>.85088E-4</BSTAR><MEAN_MOTION_DOT>.258E-5</MEAN_MOTION_DOT><MEAN_MOTION_DDOT>0</MEAN_MOTION_DDOT></tleParameters></data></segment></body></omm>
<omm id="CCSDS_OMM_VERS" version="2.0">
<header><CREATION_DATE/><ORIGINATOR/></header><body><segment><metadata><OBJECT_NAME>IRIDIUM 149</OBJECT_NAME><OBJECT_ID>2018-030B</OBJECT_ID><CENTER_NAME>EARTH</CENTER_NAME><REF_FRAME>TEME</REF_FRAME><TIME_SYSTEM>UTC</TIME_SYSTEM><MEAN_ELEMENT_THEORY>SGP4</MEAN_ELEMENT_THEORY></metadata><data><meanElements><EPOCH>2024-04-28T15:26:39.301152</EPOCH><MEAN_MOTION>14.34219262</MEAN_MOTION><ECCENTRICITY>.0002034</ECCENTRICITY><INCLINATION>86.3951</INCLINATION><RA_OF_ASC_NODE>256.1365</RA_OF_ASC_NODE><ARG_OF_PERICENTER>96.0172</ARG_OF_PERICENTER><MEAN_ANOMALY>264.1256</MEAN_ANOMALY></meanElements><tleParameters><EPHEMERIS_TYPE>0</EPHEMERIS_TYPE><CLASSIFICATION_TYPE>U</CLASSIFICATION_TYPE><NORAD_CAT_ID>43250</NORAD_CAT_ID><ELEMENT_SET_NO>999</ELEMENT_SET_NO><REV_AT_EPOCH>31842</REV_AT_EPOCH><BSTAR>.1787E-3</BSTAR><MEAN_MOTION_DOT>.52E-5</MEAN_MOTION_DOT><MEAN_MOTION_DDOT>0</MEAN_MOTION_DDOT></tleParameters></data></segment></body></omm>
<omm id="CCSDS_OMM_VERS" version="2.0">
<header><CREATION_DATE/><ORIGINATOR/></header><body><segment><metadata><OBJECT_NAME>IRIDIUM 157</OBJECT_NAME><OBJECT_ID>2018-030C</OBJECT_ID><CENTER_NAME>EARTH</CENTER_NAME><REF_FRAME>TEME</REF_FRAME><TIME_SYSTEM>UTC</TIME_SYSTEM><MEAN_ELEMENT_THEORY>SGP4</MEAN_ELEMENT_THEORY></metadata><data><meanElements><EPOCH>2024-04-28T10:52:39.592128</EPOCH><MEAN_MOTION>14.34218457</MEAN_MOTION><ECCENTRICITY>.0002368</ECCENTRICITY><INCLINATION>86.3950</INCLINATION><RA_OF_ASC_NODE>256.2517</RA_OF_ASC_NODE><ARG_OF_PERICENTER>100.0942</ARG_OF_PERICENTER><MEAN_ANOMALY>260.0521</MEAN_ANOMALY></meanElements><tleParameters><EPHEMERIS_TYPE>0</EPHEMERIS_TYPE><CLASSIFICATION_TYPE>U</CLASSIFICATION_TYPE><NORAD_CAT_ID>43251</NORAD_CAT_ID><ELEMENT_SET_NO>999</ELEMENT_SET_NO><REV_AT_EPOCH>31837</REV_AT_EPOCH><BSTAR>.19952E-3</BSTAR><MEAN_MOTION_DOT>.579E-5</MEAN_MOTION_DOT><MEAN_MOTION_DDOT>0</MEAN_MOTION_DDOT></tleParameters></data></segment></body></omm>
<omm id="CCSDS_OMM_VERS" version="2.0">
<header><CREATION_DATE/><ORIGINATOR/></header><body><segment><metadata><OBJECT_NAME>IRIDIUM 140</OBJECT_NAME><OBJECT_ID>2018-030D</OBJECT_ID><CENTER_NAME>EARTH</CENTER_NAME><REF_FRAME>TEME</REF_FRAME><TIME_SYSTEM>UTC</TIME_SYSTEM><MEAN_ELEMENT_THEORY>SGP4</MEAN_ELEMENT_THEORY></metadata><data><meanElements><EPOCH>2024-04-28T09:39:35.150688</EPOCH><MEAN_MOTION>14.34220728</MEAN_MOTION><ECCENTRICITY>.0001896</ECCENTRICITY><INCLINATION>86.3953</INCLINATION><RA_OF_ASC_NODE>256.2879</RA_OF_ASC_NODE><ARG_OF_PERICENTER>87.4480</ARG_OF_PERICENTER><MEAN_ANOMALY>272.6932</MEAN_ANOMALY></meanElements><tleParameters><EPHEMERIS_TYPE>0</EPHEMERIS_TYPE><CLASSIFICATION_TYPE>U</CLASSIFICATION_TYPE><NORAD_CAT_ID>43252</NORAD_CAT_ID><ELEMENT_SET_NO>999</ELEMENT_SET_NO><REV_AT_EPOCH>31842</REV_AT_EPOCH><BSTAR>.28338E-3</BSTAR><MEAN_MOTION_DOT>.813E-5</MEAN_MOTION_DOT><MEAN_MOTION_DDOT>0</MEAN_MOTION_DDOT></tleParameters></data></segment></body></omm>
<omm id="CCSDS_OMM_VERS" version="2.0">
<header><CREATION_DATE/><ORIGINATOR/></header><body><segment><metadata><OBJECT_NAME>IRIDIUM 145</OBJECT_NAME><OBJECT_ID>2018-030E</OBJECT_ID><CENTER_NAME>EARTH</CENTER_NAME><REF_FRAME>TEME</REF_FRAME><TIME_SYSTEM>UTC</TIME_SYSTEM><MEAN_ELEMENT_THEORY>SGP4</MEAN_ELEMENT_THEORY></metadata><data><meanElements><EPOCH>2024-04-28T11:01:47.272224</EPOCH><MEAN_MOTION>14.34219516</MEAN_MOTION><ECCENTRICITY>.0001747</ECCENTRICITY><INCLINATION>86.3953</INCLINATION><RA_OF_ASC_NODE>256.2375</RA_OF_ASC_NODE><ARG_OF_PERICENTER>96.3296</ARG_OF_PERICENTER><MEAN_ANOMALY>263.8099</MEAN_ANOMALY></meanElements><tleParameters><EPHEMERIS_TYPE>0</EPHEMERIS_TYPE><CLASSIFICATION_TYPE>U</CLASSIFICATION_TYPE><NORAD_CAT_ID>43253</NORAD_CAT_ID><ELEMENT_SET_NO>999</ELEMENT_SET_NO><REV_AT_EPOCH>31836</REV_AT_EPOCH><BSTAR>.20274E-3</BSTAR><MEAN_MOTION_DOT>.588E-5</MEAN_MOTION_DOT><MEAN_MOTION_DDOT>0</MEAN_MOTION_DDOT></tleParameters></data></segment></body></omm>
<omm id="CCSDS_OMM_VERS" version="2.0">
<header><CREATION_DATE/><ORIGINATOR/></header><body><segment><metadata><OBJECT_NAME>IRIDIUM 146</OBJECT_NAME><OBJECT_ID>2018-030F</OBJECT_ID><CENTER_NAME>EARTH</CENTER_NAME><REF_FRAME>TEME</REF_FRAME><TIME_SYSTEM>UTC</TIME_SYSTEM><MEAN_ELEMENT_THEORY>SGP4</MEAN_ELEMENT_THEORY></metadata><data><meanElements><EPOCH>2024-04-28T10:34:22.047744</EPOCH><MEAN_MOTION>14.34224373</MEAN_MOTION><ECCENTRICITY>.0001918</ECCENTRICITY><INCLINATION>86.3950</INCLINATION><RA_OF_ASC_NODE>256.2605</RA_OF_ASC_NODE><ARG_OF_PERICENTER>91.7884</ARG_OF_PERICENTER><MEAN_ANOMALY>268.3531</MEAN_ANOMALY></meanElements><tleParameters><EPHEMERIS_TYPE>0</EPHEMERIS_TYPE><CLASSIFICATION_TYPE>U</CLASSIFICATION_TYPE><NORAD_CAT_ID>43254</NORAD_CAT_ID><ELEMENT_SET_NO>999</ELEMENT_SET_NO><REV_AT_EPOCH>31837</REV_AT_EPOCH><BSTAR>.2872E-3</BSTAR><MEAN_MOTION_DOT>.824E-5</MEAN_MOTION_DOT><MEAN_MOTION_DDOT>0</MEAN_MOTION_DDOT></tleParameters></data></segment></body></omm>
<omm id="CCSDS_OMM_VERS" version="2.0">
<header><CREATION_DATE/><ORIGINATOR/></header><body><segment><metadata><OBJECT_NAME>IRIDIUM 148</OBJECT_NAME><OBJECT_ID>2018-030G</OBJECT_ID><CENTER_NAME>EARTH</CENTER_NAME><REF_FRAME>TEME</REF_FRAME><TIME_SYSTEM>UTC</TIME_SYSTEM><MEAN_ELEMENT_THEORY>SGP4</MEAN_ELEMENT_THEORY></metadata><data><meanElements><EPOCH>2024-04-28T14:50:07.273536</EPOCH><MEAN_MOTION>14.34217812</MEAN_MOTION><ECCENTRICITY>.0002055</ECCENTRICITY><INCLINATION>86.3953</INCLINATION><RA_OF_ASC_NODE>256.2177</RA_OF_ASC_NODE><ARG_OF_PERICENTER>101.8638</ARG_OF_PERICENTER><MEAN_ANOMALY>258.2789</MEAN_ANOMALY></meanElements><tleParameters><EPHEMERIS_TYPE>0</EPHEMERIS_TYPE><CLASSIFICATION_TYPE>U</CLASSIFICATION_TYPE><NORAD_CAT_ID>43255</NORAD_CAT_ID><ELEMENT_SET_NO>999</ELEMENT_SET_NO><REV_AT_EPOCH>31843</REV_AT_EPOCH><BSTAR>.14673E-3</BSTAR><MEAN_MOTION_DOT>.431E-5</MEAN_MOTION_DOT><MEAN_MOTION_DDOT>0</MEAN_MOTION_DDOT></tleParameters></data></segment></body></omm>
<omm id="CCSDS_OMM_VERS" version="2.0">
<header><CREATION_DATE/><ORIGINATOR/></header><body><segment><metadata><OBJECT_NAME>IRIDIUM 142</OBJECT_NAME><OBJECT_ID>2018-030H</OBJECT_ID><CENTER_NAME>EARTH</CENTER_NAME><REF_FRAME>TEME</REF_FRAME><TIME_SYSTEM>UTC</TIME_SYSTEM><MEAN_ELEMENT_THEORY>SGP4</MEAN_ELEMENT_THEORY></metadata><data><meanElements><EPOCH>2024-04-28T10:43:31.118016</EPOCH><MEAN_MOTION>14.34220480</MEAN_MOTION><ECCENTRICITY>.0001935</ECCENTRICITY><INCLINATION>86.3950</INCLINATION><RA_OF_ASC_NODE>256.2067</RA_OF_ASC_NODE><ARG_OF_PERICENTER>97.5498</ARG_OF_PERICENTER><MEAN_ANOMALY>262.5918</MEAN_ANOMALY></meanElements><tleParameters><EPHEMERIS_TYPE>0</EPHEMERIS_TYPE><CLASSIFICATION_TYPE>U</CLASSIFICATION_TYPE><NORAD_CAT_ID>43256</NORAD_CAT_ID><ELEMENT_SET_NO>999</ELEMENT_SET_NO><REV_AT_EPOCH>31837</REV_AT_EPOCH><BSTAR>.16575E-3</BSTAR><MEAN_MOTION_DOT>.484E-5</MEAN_MOTION_DOT><MEAN_MOTION_DDOT>0</MEAN_MOTION_DDOT></tleParameters></data></segment></body></omm>

</ndm>
