IRIDIUM 144             
1 43249U 18030A   24119.63716843  .00000258  00000+0  85088-4 0  9996
2 43249  86.3951 256.1635 0002022  92.5459 267.5968 14.34216762318409
IRIDIUM 149             
1 43250U 18030B   24119.64351043  .00000520  00000+0  17870-3 0  9991
2 43250  86.3951 256.1365 0002034  96.0172 264.1256 14.34219262318428
IRIDIUM 157             
1 43251U 18030C   24119.45323602  .00000579  00000+0  19952-3 0  9998
2 43251  86.3950 256.2517 0002368 100.0942 260.0521 14.34218457318378
IRIDIUM 140             
1 43252U 18030D   24119.40249017  .00000813  00000+0  28338-3 0  9990
2 43252  86.3953 256.2879 0001896  87.4480 272.6932 14.34220728318428
IRIDIUM 145             
1 43253U 18030E   24119.45957491  .00000588  00000+0  20274-3 0  9998
2 43253  86.3953 256.2375 0001747  96.3296 263.8099 14.34219516318361
IRIDIUM 146             
1 43254U 18030F   24119.44053296  .00000824  00000+0  28720-3 0  9995
2 43254  86.3950 256.2605 0001918  91.7884 268.3531 14.34224373318376
IRIDIUM 148             
1 43255U 18030G   24119.61813974  .00000431  00000+0  14673-3 0  9998
2 43255  86.3953 256.2177 0002055 101.8638 258.2789 14.34217812318437
IRIDIUM 142             
1 43256U 18030H   24119.44688794  .00000484  00000+0  16575-3 0  9991
2 43256  86.3950 256.2067 0001935  97.5498 262.5918 14.34220480318374
